SAOCOM 1A               
1 43641U 18076A   26104.27103465  .00000210  00000+0  32935-4 0  9999
2 43641  97.8908 291.9417 0001418  91.6818 268.4558 14.82145432406632
H-2A R/B                
1 43682U 18084L   26104.16066080  .00010416  00000+0  23776-3 0  9993
2 43682  98.8682 329.1658 0023102 259.1368 100.7275 15.42869489411242
SAOCOM 1B               
1 46265U 20059A   26104.30229896  .00000082  00000+0  16811-4 0  9991
2 46265  97.8895 291.0674 0001493  83.7118 276.4266 14.82159001304028
CSS (TIANHE)            
1 48274U 21035A   26104.14683642  .00015982  00000+0  17868-3 0  9990
2 48274  41.4686 352.1325 0005452 204.5875 155.4705 15.62370155283155
COSMOS 2550             
1 48865U 21056A   26104.18587058 -.00000180  00000+0  36684-6 0  9992
2 48865  67.1432 293.5083 0008374 268.8034  91.2161 15.33831095268902
CZ-2C R/B               
1 52794U 22058K   26103.45737399  .00023264  00000+0  31098-3 0  9993
2 52794  50.1867 139.0827 0040490 349.7900  10.2245 15.56916550215549
CZ-2C R/B               
1 54039U 22132E   26104.27518553  .00027149  00000+0  27302-3 0  9999
2 54039  97.2945 108.7656 0013720 324.3228  35.7114 15.65303678195931
GSLV R/B                
1 54149U 22138AN  26104.15150378  .00001590  00000+0  13506-3 0  9994
2 54149  87.3835 154.4848 0022482  29.2891 330.9596 14.96987730189234
XRISM                   
1 57800U 23137A   26104.22965767  .00002943  00000+0  16211-3 0  9994
2 57800  31.0025  53.7121 0007546  36.4677 323.6475 15.11908185143172
ACS3                    
1 59588U 24077B   26104.04594863  .00002135  00000+0  16814-2 0  9999
2 59588  97.1890  37.2146 0071685   1.6638 358.4753 13.91282112 99110
HTV-X1                  
1 66174U 25241A   26103.60300693  .00003702  00000+0  12725-3 0  9998
2 66174  51.6352 264.7214 0007460 308.5367  51.4945 15.32634450 26293
SZ-21 MODULE            
1 66515U 25246C   26103.67814441  .00025378  00000+0  19523-3 0  9996
2 66515  41.4754 347.5224 0004429 266.9683  93.0653 15.71400343 23577
