[{"OBJECT_NAME":"SAOCOM 1A","OBJECT_ID":"2018-076A","EPOCH":"2026-04-14T06:30:17.393760","MEAN_MOTION":14.82145432,"ECCENTRICITY":0.00014184,"INCLINATION":97.8908,"RA_OF_ASC_NODE":291.9417,"ARG_OF_PERICENTER":91.6818,"MEAN_ANOMALY":268.4558,"EPHEMERIS_TYPE":0,"CLASSIFICATION_TYPE":"U","NORAD_CAT_ID":43641,"ELEMENT_SET_NO":999,"REV_AT_EPOCH":40663,"BSTAR":3.2935452e-5,"MEAN_MOTION_DOT":2.1e-6,"MEAN_MOTION_DDOT":0},{"OBJECT_NAME":"H-2A R/B","OBJECT_ID":"2018-084L","EPOCH":"2026-04-14T03:51:21.093120","MEAN_MOTION":15.42869489,"ECCENTRICITY":0.00231021,"INCLINATION":98.8682,"RA_OF_ASC_NODE":329.1658,"ARG_OF_PERICENTER":259.1368,"MEAN_ANOMALY":100.7275,"EPHEMERIS_TYPE":0,"CLASSIFICATION_TYPE":"U","NORAD_CAT_ID":43682,"ELEMENT_SET_NO":999,"REV_AT_EPOCH":41124,"BSTAR":0.00023775741,"MEAN_MOTION_DOT":0.00010416,"MEAN_MOTION_DDOT":0},{"OBJECT_NAME":"SAOCOM 1B","OBJECT_ID":"2020-059A","EPOCH":"2026-04-14T07:15:18.630144","MEAN_MOTION":14.82159001,"ECCENTRICITY":0.0001493,"INCLINATION":97.8895,"RA_OF_ASC_NODE":291.0674,"ARG_OF_PERICENTER":83.7118,"MEAN_ANOMALY":276.4266,"EPHEMERIS_TYPE":0,"CLASSIFICATION_TYPE":"U","NORAD_CAT_ID":46265,"ELEMENT_SET_NO":999,"REV_AT_EPOCH":30402,"BSTAR":1.6811121e-5,"MEAN_MOTION_DOT":8.2e-7,"MEAN_MOTION_DDOT":0},{"OBJECT_NAME":"CSS (TIANHE)","OBJECT_ID":"2021-035A","EPOCH":"2026-04-14T03:31:26.666688","MEAN_MOTION":15.62370155,"ECCENTRICITY":0.00054524,"INCLINATION":41.4686,"RA_OF_ASC_NODE":352.1325,"ARG_OF_PERICENTER":204.5875,"MEAN_ANOMALY":155.4705,"EPHEMERIS_TYPE":0,"CLASSIFICATION_TYPE":"U","NORAD_CAT_ID":48274,"ELEMENT_SET_NO":999,"REV_AT_EPOCH":28315,"BSTAR":0.00017867682,"MEAN_MOTION_DOT":0.00015982,"MEAN_MOTION_DDOT":0},{"OBJECT_NAME":"COSMOS 2550","OBJECT_ID":"2021-056A","EPOCH":"2026-04-14T04:27:39.218112","MEAN_MOTION":15.33831095,"ECCENTRICITY":0.00083746,"INCLINATION":67.1432,"RA_OF_ASC_NODE":293.5083,"ARG_OF_PERICENTER":268.8034,"MEAN_ANOMALY":91.2161,"EPHEMERIS_TYPE":0,"CLASSIFICATION_TYPE":"U","NORAD_CAT_ID":48865,"ELEMENT_SET_NO":999,"REV_AT_EPOCH":26890,"BSTAR":3.66837e-7,"MEAN_MOTION_DOT":-1.8e-6,"MEAN_MOTION_DDOT":0},{"OBJECT_NAME":"CZ-2C R/B","OBJECT_ID":"2022-058K","EPOCH":"2026-04-13T10:58:37.112736","MEAN_MOTION":15.5691655,"ECCENTRICITY":0.004049,"INCLINATION":50.1867,"RA_OF_ASC_NODE":139.0827,"ARG_OF_PERICENTER":349.79,"MEAN_ANOMALY":10.2245,"EPHEMERIS_TYPE":0,"CLASSIFICATION_TYPE":"U","NORAD_CAT_ID":52794,"ELEMENT_SET_NO":999,"REV_AT_EPOCH":21554,"BSTAR":0.00031098,"MEAN_MOTION_DOT":0.00023264,"MEAN_MOTION_DDOT":0},{"OBJECT_NAME":"CZ-2C R/B","OBJECT_ID":"2022-132E","EPOCH":"2026-04-14T06:36:16.029792","MEAN_MOTION":15.65303678,"ECCENTRICITY":0.00137203,"INCLINATION":97.2945,"RA_OF_ASC_NODE":108.7656,"ARG_OF_PERICENTER":324.3228,"MEAN_ANOMALY":35.7114,"EPHEMERIS_TYPE":0,"CLASSIFICATION_TYPE":"U","NORAD_CAT_ID":54039,"ELEMENT_SET_NO":999,"REV_AT_EPOCH":19593,"BSTAR":0.00027302426,"MEAN_MOTION_DOT":0.00027149,"MEAN_MOTION_DDOT":0},{"OBJECT_NAME":"GSLV R/B","OBJECT_ID":"2022-138AN","EPOCH":"2026-04-14T03:38:09.926592","MEAN_MOTION":14.9698773,"ECCENTRICITY":0.00224823,"INCLINATION":87.3835,"RA_OF_ASC_NODE":154.4848,"ARG_OF_PERICENTER":29.2891,"MEAN_ANOMALY":330.9596,"EPHEMERIS_TYPE":0,"CLASSIFICATION_TYPE":"U","NORAD_CAT_ID":54149,"ELEMENT_SET_NO":999,"REV_AT_EPOCH":18923,"BSTAR":0.00013505831,"MEAN_MOTION_DOT":1.59e-5,"MEAN_MOTION_DDOT":0},{"OBJECT_NAME":"XRISM","OBJECT_ID":"2023-137A","EPOCH":"2026-04-14T05:30:42.422688","MEAN_MOTION":15.11908185,"ECCENTRICITY":0.00075468,"INCLINATION":31.0025,"RA_OF_ASC_NODE":53.7121,"ARG_OF_PERICENTER":36.4677,"MEAN_ANOMALY":323.6475,"EPHEMERIS_TYPE":0,"CLASSIFICATION_TYPE":"U","NORAD_CAT_ID":57800,"ELEMENT_SET_NO":999,"REV_AT_EPOCH":14317,"BSTAR":0.00016211165,"MEAN_MOTION_DOT":2.943e-5,"MEAN_MOTION_DDOT":0},{"OBJECT_NAME":"ACS3","OBJECT_ID":"2024-077B","EPOCH":"2026-04-14T01:06:09.961632","MEAN_MOTION":13.91282112,"ECCENTRICITY":0.00716851,"INCLINATION":97.189,"RA_OF_ASC_NODE":37.2146,"ARG_OF_PERICENTER":1.6638,"MEAN_ANOMALY":358.4753,"EPHEMERIS_TYPE":0,"CLASSIFICATION_TYPE":"U","NORAD_CAT_ID":59588,"ELEMENT_SET_NO":999,"REV_AT_EPOCH":9911,"BSTAR":0.0016813649,"MEAN_MOTION_DOT":2.135e-5,"MEAN_MOTION_DDOT":0},{"OBJECT_NAME":"HTV-X1","OBJECT_ID":"2025-241A","EPOCH":"2026-04-13T14:28:19.798752","MEAN_MOTION":15.3263445,"ECCENTRICITY":0.000746,"INCLINATION":51.6352,"RA_OF_ASC_NODE":264.7214,"ARG_OF_PERICENTER":308.5367,"MEAN_ANOMALY":51.4945,"EPHEMERIS_TYPE":0,"CLASSIFICATION_TYPE":"U","NORAD_CAT_ID":66174,"ELEMENT_SET_NO":999,"REV_AT_EPOCH":2629,"BSTAR":0.00012725,"MEAN_MOTION_DOT":3.702e-5,"MEAN_MOTION_DDOT":0},{"OBJECT_NAME":"SZ-21 MODULE","OBJECT_ID":"2025-246C","EPOCH":"2026-04-13T16:16:31.677024","MEAN_MOTION":15.71400343,"ECCENTRICITY":0.0004429,"INCLINATION":41.4754,"RA_OF_ASC_NODE":347.5224,"ARG_OF_PERICENTER":266.9683,"MEAN_ANOMALY":93.0653,"EPHEMERIS_TYPE":0,"CLASSIFICATION_TYPE":"U","NORAD_CAT_ID":66515,"ELEMENT_SET_NO":999,"REV_AT_EPOCH":2357,"BSTAR":0.00019523,"MEAN_MOTION_DOT":0.00025378,"MEAN_MOTION_DDOT":0}]
